NORAD_CAT_ID,OBJECT_NAME,OBJECT_TYPE,EPOCH,MEAN_MOTION,ECCENTRICITY,INCLINATION,RA_OF_ASC_NODE,ARG_OF_PERICENTER,MEAN_ANOMALY,BSTAR,MEAN_MOTION_DOT,MEAN_MOTION_DDOT,TLE_LINE0,TLE_LINE1,TLE_LINE2,SEMIMAJOR_AXIS,PERIOD,APOGEE,PERIGEE,DECAYED
49444.0,STARLINK-3126,PAYLOAD,2023-07-26 07:31:56,15.08838709,9.97e-05,53.2169,186.9572,86.5739,273.5367,2.1648e-05,5.7e-07,0.0,0 STARLINK-3126,1 49444U 21104AN  23207.31384605  .00000057  00000-0  21648-4 0  9994,2 49444  53.2169 186.9572 0000997  86.5739 273.5367 15.08838709 94380,6917.884,95.438,540.439,539.06,0.0
49444.0,STARLINK-3126,PAYLOAD,2023-07-27 07:22:43,15.08837414,0.0001031,53.2169,182.4968,86.05,274.061,5.8186e-05,6.38e-06,0.0,0 STARLINK-3126,1 49444U 21104AN  23208.30744851  .00000638  00000-0  58186-4 0  9999,2 49444  53.2169 182.4968 0001031  86.0500 274.0610 15.08837414 95606,6917.888,95.438,540.467,539.04,0.0
49444.0,STARLINK-3126,PAYLOAD,2023-07-27 21:41:12,15.08832026,0.0001001,53.2166,179.8213,94.4228,265.6878,1.4032e-05,-6.4e-07,0.0,0 STARLINK-3126,1 49444U 21104AN  23208.90361459 -.00000064  00000-0  14032-4 0  9990,2 49444  53.2166 179.8213 0001001  94.4228 265.6878 15.08832026 94620,6917.905,95.438,540.462,539.077,0.0
49444.0,STARLINK-3126,PAYLOAD,2023-07-27 23:16:35,15.08833,0.0001044,53.2172,179.5233,94.2239,265.8872,-4.1511e-05,-9.48e-06,0.0,0 STARLINK-3126,1 49444U 21104AN  23208.96985654 -.00000948  00000-0 -41511-4 0  9999,2 49444  53.2172 179.5233 0001044  94.2239 265.8872 15.08833000 95702,6917.902,95.438,540.489,539.045,0.0
49444.0,STARLINK-3126,PAYLOAD,2023-07-28 07:13:31,15.08836106,0.0001114,53.2171,178.0362,92.0235,268.0885,-9.6471e-06,-4.41e-06,0.0,0 STARLINK-3126,1 49444U 21104AN  23209.30105454 -.00000441  00000-0 -96471-5 0  9994,2 49444  53.2171 178.0362 0001114  92.0235 268.0885 15.08836106 94683,6917.892,95.438,540.528,538.987,0.0
49444.0,STARLINK-3126,PAYLOAD,2023-07-28 15:10:26,15.08837065,0.0001177,53.2175,176.5496,91.9393,268.1734,2.368e-06,-2.5e-06,0.0,0 STARLINK-3126,1 49444U 21104AN  23209.63225434 -.00000250  00000-0  23680-5 0  9990,2 49444  53.2175 176.5496 0001177  91.9393 268.1734 15.08837065 95804,6917.889,95.438,540.569,538.94,0.0
49444.0,STARLINK-3126,PAYLOAD,2023-07-30 02:08:55,15.08836686,0.0001076,53.2165,170.0071,95.809,264.3025,9.3139e-05,1.195e-05,0.0,0 STARLINK-3126,1 49444U 21104AN  23211.08953323  .00001195  00000-0  93139-4 0  9990,2 49444  53.2165 170.0071 0001076  95.8090 264.3025 15.08836686 96020,6917.891,95.438,540.5,539.011,0.0
49444.0,STARLINK-3126,PAYLOAD,2023-07-31 06:45:52,15.08843195,0.0001296,53.217,164.6541,92.636,267.478,2.9673e-06,-2.41e-06,0.0,0 STARLINK-3126,1 49444U 21104AN  23212.28185292 -.00000241  00000-0  29673-5 0  9990,2 49444  53.2170 164.6541 0001296  92.6360 267.4780 15.08843195 96201,6917.871,95.437,540.632,538.839,0.0
49444.0,STARLINK-3126,PAYLOAD,2023-08-02 00:05:54,15.08836662,0.0001296,53.217,156.9212,98.6691,261.4448,1.3287e-05,-7.6e-07,0.0,0 STARLINK-3126,1 49444U 21104AN  23214.00409822 -.00000076  00000-0  13287-4 0  9999,2 49444  53.2170 156.9212 0001296  98.6691 261.4448 15.08836662 96467,6917.891,95.438,540.652,538.859,0.0
49444.0,STARLINK-3126,PAYLOAD,2023-08-03 01:32:04,15.08840163,0.0001275,53.2175,152.1679,102.5425,257.571,8.6809e-06,-1.5e-06,0.0,0 STARLINK-3126,1 49444U 21104AN  23215.06393874 -.00000150  00000-0  86809-5 0  9999,2 49444  53.2175 152.1679 0001275 102.5425 257.5710 15.08840163 96621,6917.88,95.438,540.627,538.863,0.0
49444.0,STARLINK-3126,PAYLOAD,2023-08-04 02:58:15,15.08834139,0.0001286,53.2179,147.4062,84.5155,275.5983,4.8225e-06,-2.11e-06,0.0,0 STARLINK-3126,1 49444U 21104AN  23216.12378744 -.00000211  00000-0  48225-5 0  9994,2 49444  53.2179 147.4062 0001286  84.5155 275.5983 15.08834139 96784,6917.898,95.438,540.653,538.874,0.0
49444.0,STARLINK-3126,PAYLOAD,2023-08-05 02:49:01,15.08849456,0.0001329,53.2178,142.9492,79.1666,280.9476,6.8188e-05,7.98e-06,0.0,0 STARLINK-3126,1 49444U 21104AN  23217.11737835  .00000798  00000-0  68188-4 0  9992,2 49444  53.2178 142.9492 0001329  79.1666 280.9476 15.08849456 96937,6917.851,95.437,540.636,538.797,0.0
49444.0,STARLINK-3126,PAYLOAD,2023-08-06 04:15:10,15.08853305,0.0001194,53.2169,138.1876,91.0011,269.1118,0.00016378,2.321e-05,0.0,0 STARLINK-3126,1 49444U 21104AN  23218.17720805  .00002321  00000-0  16378-3 0  9995,2 49444  53.2169 138.1876 0001194  91.0011 269.1118 15.08853305 97095,6917.84,95.437,540.531,538.879,0.0
49444.0,STARLINK-3126,PAYLOAD,2023-08-06 18:33:41,15.08831495,0.0001194,53.217,135.5129,98.4813,261.6315,-0.00017418,-3.058e-05,0.0,0 STARLINK-3126,1 49444U 21104AN  23218.77339246 -.00003058  00000-0 -17418-3 0  9992,2 49444  53.2170 135.5129 0001194  98.4813 261.6315 15.08831495 97182,6917.906,95.438,540.597,538.945,0.0
49444.0,STARLINK-3126,PAYLOAD,2023-08-07 04:05:59,15.08839138,0.0001228,53.2166,133.7293,97.9876,262.1256,-9.8115e-05,-1.849e-05,0.0,0 STARLINK-3126,1 49444U 21104AN  23219.17082571 -.00001849  00000-0 -98115-4 0  9993,2 49444  53.2166 133.7293 0001228  97.9876 262.1256 15.08839138 97249,6917.883,95.438,540.598,538.899,0.0
49444.0,STARLINK-3126,PAYLOAD,2023-08-08 00:45:59,15.08850342,0.0001181,53.2167,129.8641,91.3919,268.7209,-5.0223e-05,-1.087e-05,0.0,0 STARLINK-3126,1 49444U 21104AN  23220.03193735 -.00001087  00000-0 -50223-4 0  9997,2 49444  53.2167 129.8641 0001181  91.3919 268.7209 15.08850342 97371,6917.849,95.437,540.531,538.897,0.0
49444.0,STARLINK-3126,PAYLOAD,2023-08-08 18:15:14,15.08830159,0.0001243,53.2163,126.5923,102.9421,257.171,0.0001283,1.754e-05,0.0,0 STARLINK-3126,1 49444U 21104AN  23220.76058519  .00001754  00000-0  12830-3 0  9997,2 49444  53.2163 126.5923 0001243 102.9421 257.1710 15.08830159 97485,6917.91,95.438,540.635,538.916,0.0
49444.0,STARLINK-3126,PAYLOAD,2023-08-09 03:47:33,15.08837231,0.0001254,53.2168,124.8077,100.1308,259.9825,0.00011547,1.55e-05,0.0,0 STARLINK-3126,1 49444U 21104AN  23221.15802245  .00001550  00000-0  11547-3 0  9992,2 49444  53.2168 124.8077 0001254 100.1308 259.9825 15.08837231 97549,6917.889,95.438,540.621,538.886,0.0
49444.0,STARLINK-3126,PAYLOAD,2023-08-10 09:59:52,15.08844821,0.0001287,53.2157,119.1598,88.9028,271.2111,-2.3446e-05,-6.61e-06,0.0,0 STARLINK-3126,1 49444U 21104AN  23222.41658391 -.00000661  00000-0 -23446-4 0  9999,2 49444  53.2157 119.1598 0001287  88.9028 271.2111 15.08844821 97739,6917.866,95.437,540.621,538.84,0.0
49444.0,STARLINK-3126,PAYLOAD,2023-08-10 17:56:49,15.08837399,0.0001269,53.2163,117.6737,92.7964,267.3173,-8.6061e-06,-4.25e-06,0.0,0 STARLINK-3126,1 49444U 21104AN  23222.74778941 -.00000425  00000-0 -86061-5 0  9990,2 49444  53.2163 117.6737 0001269  92.7964 267.3173 15.08837399 97787,6917.888,95.438,540.631,538.875,0.0
49444.0,STARLINK-3126,PAYLOAD,2023-08-11 01:53:44,15.08843982,0.0001338,53.2147,116.1859,89.924,270.1906,7.785e-05,9.51e-06,0.0,0 STARLINK-3126,1 49444U 21104AN  23223.07898240  .00000951  00000-0  77850-4 0  9999,2 49444  53.2147 116.1859 0001338  89.9240 270.1906 15.08843982 97837,6917.868,95.437,540.659,538.808,0.0
49444.0,STARLINK-3126,PAYLOAD,2023-08-11 09:50:40,15.08834619,0.0001832,53.2141,114.6999,79.1577,280.9621,5.9015e-05,6.51e-06,0.0,0 STARLINK-3126,1 49444U 21104AN  23223.41019065  .00000651  00000-0  59015-4 0  9997,2 49444  53.2141 114.6999 0001832  79.1577 280.9621 15.08834619 97887,6917.897,95.438,541.029,538.494,0.0
49444.0,STARLINK-3126,PAYLOAD,2023-08-12 16:02:59,15.08839781,9.69e-05,53.217,109.0513,81.1271,278.9831,7.1587e-05,8.52e-06,0.0,0 STARLINK-3126,1 49444U 21104AN  23224.66874774  .00000852  00000-0  71587-4 0  9992,2 49444  53.2170 109.0513 0000969  81.1271 278.9831 15.08839781 98070,6917.881,95.438,540.416,539.076,0.0
49444.0,STARLINK-3126,PAYLOAD,2023-08-13 22:15:19,15.08834304,0.0001638,53.2159,103.4039,53.6609,306.4534,7.1622e-05,8.52e-06,0.0,0 STARLINK-3126,1 49444U 21104AN  23225.92731419  .00000852  00000-0  71622-4 0  9990,2 49444  53.2159 103.4039 0001638  53.6609 306.4534 15.08834304 98265,6917.898,95.438,540.896,538.63,0.0
49444.0,STARLINK-3126,PAYLOAD,2023-08-15 01:16:52,15.08849542,0.0001445,53.2174,98.3429,99.5359,260.5797,4.6573e-05,4.54e-06,0.0,0 STARLINK-3126,1 49444U 21104AN  23227.05338245  .00000454  00000-0  46573-4 0  9991,2 49444  53.2174  98.3429 0001445  99.5359 260.5797 15.08849542 98434,6917.851,95.437,540.716,538.717,0.0
49444.0,STARLINK-3126,PAYLOAD,2023-08-16 01:07:40,15.08837938,0.0001404,53.217,93.8837,86.3909,273.7244,2.1005e-05,4.6e-07,0.0,0 STARLINK-3126,1 49444U 21104AN  23228.04699213  .00000046  00000-0  21005-4 0  9996,2 49444  53.2170  93.8837 0001404  86.3909 273.7244 15.08837938 98588,6917.887,95.438,540.723,538.78,0.0
49444.0,STARLINK-3126,PAYLOAD,2023-08-17 00:58:26,15.08867507,0.0001409,53.2179,89.4229,94.0767,266.0386,-0.00026867,-4.565e-05,0.0,0 STARLINK-3126,1 49444U 21104AN  23229.04058258 -.00004565  00000-0 -26867-3 0  9997,2 49444  53.2179  89.4229 0001409  94.0767 266.0386 15.08867507 98730,6917.796,95.436,540.636,538.687,0.0
49444.0,STARLINK-3126,PAYLOAD,2023-08-17 15:16:55,15.0883782,0.0001474,53.2163,86.7467,86.6827,273.4334,3.4412e-05,2.6e-06,0.0,0 STARLINK-3126,1 49444U 21104AN  23229.63675247  .00000260  00000-0  34412-4 0  9997,2 49444  53.2163  86.7467 0001474  86.6827 273.4334 15.08837820 98823,6917.887,95.438,540.772,538.732,0.0
49444.0,STARLINK-3126,PAYLOAD,2023-08-18 15:07:43,15.08826486,0.0001579,53.2169,82.2862,92.4256,267.6917,-3.7796e-06,-3.48e-06,0.0,0 STARLINK-3126,1 49444U 21104AN  23230.63036137 -.00000348  00000-0 -37796-5 0  9996,2 49444  53.2169  82.2862 0001579  92.4256 267.6917 15.08826486 98970,6917.922,95.438,540.879,538.694,0.0
49444.0,STARLINK-3126,PAYLOAD,2023-08-19 14:58:29,15.08839087,0.0001348,53.2169,77.8257,89.8288,270.2859,1.8531e-05,7e-08,0.0,0 STARLINK-3126,1 49444U 21104AN  23231.62395753  .00000007  00000-0  18531-4 0  9993,2 49444  53.2169  77.8257 0001348  89.8288 270.2859 15.08839087 99121,6917.883,95.438,540.681,538.816,0.0
